IRIDIUM 112             
1 41925U 17003J   24220.49516296  .00000407  00000+0  13815-3 0  9995
2 41925  86.3990  11.9153 0002305 100.2299 259.9157 14.34218428395991
IRIDIUM 111             
1 41926U 17003K   24220.83131938  .00000578  00000+0  19936-3 0  9999
2 41926  86.3992  11.8304 0002535  92.1670 267.9816 14.34219770396092
IRIDIUM 113             
1 42803U 17039A   24220.53220801  .00000116  00000+0  34433-4 0  9996
2 42803  86.3936 245.7201 0002563  91.7614 268.3875 14.34217773373910
IRIDIUM 123             
1 42804U 17039B   24220.71322631  .00000061  00000+0  14562-4 0  9991
2 42804  86.3941 277.1537 0002397  91.8454 268.3017 14.34218036372703
IRIDIUM 120             
1 42805U 17039C   24220.52586721  .00000028  00000+0  28118-5 0  9999
2 42805  86.3929 245.5930 0002116  90.7915 269.3523 14.34217747373909
IRIDIUM 115             
1 42806U 17039D   24220.50829939  .00000438  00000+0  12431-3 0  9993
2 42806  86.4463 245.6325 0002714  90.0215 270.1297 14.43288245376376
IRIDIUM 118             
1 42807U 17039E   24220.53563463 -.00000056  00000+0 -27006-4 0  9997
2 42807  86.3942 277.2287 0002049  95.1222 265.0207 14.34216263372675
IRIDIUM 117             
1 42808U 17039F   24220.69420056  .00000012  00000+0 -26264-5 0  9992
2 42808  86.3943 277.1267 0002327  92.3632 267.7830 14.34216790372730
